STARLINK-30896          
1 58353U 23177C   24038.25001157  .00023170  00000+0  16382-2 0  9996
2 58353  42.9997 169.7451 0001330 263.2608 227.0795 15.04470827 13524
STARLINK-30832          
1 58354U 23177D   24037.44166944 -.00051502  00000+0 -26476-2 0  9990
2 58354  42.9989 173.4466 0001725 261.0266  99.0386 15.15898913 13501
STARLINK-30903          
1 58355U 23177E   24037.91667824 -.02196839  00000+0 -15513+0 0  9998
2 58355  42.9993 171.4701 0000999 280.3184 241.6345 15.07953337  5843
STARLINK-30905          
1 58356U 23177F   24037.85977096  .00001561  00000+0  13057-3 0  9995
2 58356  42.9978 171.3967 0000525 257.8361 102.2422 15.02537913 13582
STARLINK-30842          
1 58357U 23177G   24037.78753002  .00028549  00000+0  10959-2 0  9999
2 58357  42.9986 160.4803 0000956 293.0842  66.9908 15.25943322 13781
STARLINK-30858          
1 58358U 23177H   24037.91667824  .00044209  00000+0  31049-2 0  9995
2 58358  42.9994 171.4469 0001913 274.3150 256.7069 15.04450338  5841
STARLINK-30878          
1 58359U 23177J   24037.37122905  .00012675  00000+0  65957-3 0  9990
2 58359  42.9967 173.7814 0000783 290.4516  69.6247 15.15956202 13548
STARLINK-30897          
1 58360U 23177K   24037.91667824  .00031391  00000+0  23311-2 0  9999
2 58360  43.0007 171.2340 0001278 287.3398 332.7407 15.02493512  5658
STARLINK-30885          
1 58361U 23177L   24037.91667824 -.00028764  00000+0 -20144-2 0  9993
2 58361  42.9992 171.3760 0001274 258.2675 302.4643 15.04499374  5591
STARLINK-30890          
1 58362U 23177M   24037.91667824 -.02201640  00000+0 -15872+0 0  9991
2 58362  42.9992 171.2723 0001176 257.7256 346.4975 15.07206125  5847
STARLINK-30909          
1 58363U 23177N   24037.91667824 -.02200334  00000+0 -14664+0 0  9999
2 58363  42.9993 171.2046 0001306 263.4396   9.2287 15.10050122  5805
STARLINK-30904          
1 58364U 23177P   24038.25001157 -.02186298  00000+0 -14740+0 0  9996
2 58364  42.9996 169.0555 0001567 275.0817 141.2626 15.09608515 13687
STARLINK-30918          
1 58365U 23177Q   24037.86289118 -.01003303  00000+0 -68754-1 0  9998
2 58365  42.9989 171.4492 0002336 278.2463  81.8116 15.08103338 13623
STARLINK-30892          
1 58366U 23177R   24037.91667824  .00058298  00000+0  40848-2 0  9994
2 58366  42.9993 171.2437 0001242 260.7544 354.5568 15.04421142  5856
STARLINK-30891          
1 58367U 23177S   24037.52349106  .00004792  00000+0  25691-3 0  9992
2 58367  42.9977 173.1999 0001244 243.5184 116.5535 15.15969080 13505
STARLINK-30889          
1 58368U 23177T   24038.25001157 -.02182751  00000+0 -15068+0 0  9994
2 58368  42.9995 169.2492 0001576 263.4140  73.8375 15.08748631 13686
