[{"OBJECT_NAME":"STARLINK-30896","OBJECT_ID":"2023-177C","EPOCH":"2024-02-07T06:00:00.999648","MEAN_MOTION":15.04470827,"ECCENTRICITY":0.000133,"INCLINATION":42.9997,"RA_OF_ASC_NODE":169.7451,"ARG_OF_PERICENTER":263.2608,"MEAN_ANOMALY":227.0795,"EPHEMERIS_TYPE":0,"CLASSIFICATION_TYPE":"U","NORAD_CAT_ID":58353,"ELEMENT_SET_NO":999,"REV_AT_EPOCH":1352,"BSTAR":0.0016382,"MEAN_MOTION_DOT":0.0002317,"MEAN_MOTION_DDOT":0},{"OBJECT_NAME":"STARLINK-30832","OBJECT_ID":"2023-177D","EPOCH":"2024-02-06T10:36:00.239616","MEAN_MOTION":15.15898913,"ECCENTRICITY":0.0001725,"INCLINATION":42.9989,"RA_OF_ASC_NODE":173.4466,"ARG_OF_PERICENTER":261.0266,"MEAN_ANOMALY":99.0386,"EPHEMERIS_TYPE":0,"CLASSIFICATION_TYPE":"U","NORAD_CAT_ID":58354,"ELEMENT_SET_NO":999,"REV_AT_EPOCH":1350,"BSTAR":-0.0026476,"MEAN_MOTION_DOT":-0.00051502,"MEAN_MOTION_DDOT":0},{"OBJECT_NAME":"STARLINK-30903","OBJECT_ID":"2023-177E","EPOCH":"2024-02-06T22:00:00.999936","MEAN_MOTION":15.07953337,"ECCENTRICITY":9.99e-5,"INCLINATION":42.9993,"RA_OF_ASC_NODE":171.4701,"ARG_OF_PERICENTER":280.3184,"MEAN_ANOMALY":241.6345,"EPHEMERIS_TYPE":0,"CLASSIFICATION_TYPE":"U","NORAD_CAT_ID":58355,"ELEMENT_SET_NO":999,"REV_AT_EPOCH":584,"BSTAR":-0.15513,"MEAN_MOTION_DOT":-0.02196839,"MEAN_MOTION_DDOT":0},{"OBJECT_NAME":"STARLINK-30905","OBJECT_ID":"2023-177F","EPOCH":"2024-02-06T20:38:04.210944","MEAN_MOTION":15.02537913,"ECCENTRICITY":5.25e-5,"INCLINATION":42.9978,"RA_OF_ASC_NODE":171.3967,"ARG_OF_PERICENTER":257.8361,"MEAN_ANOMALY":102.2422,"EPHEMERIS_TYPE":0,"CLASSIFICATION_TYPE":"U","NORAD_CAT_ID":58356,"ELEMENT_SET_NO":999,"REV_AT_EPOCH":1358,"BSTAR":0.00013057,"MEAN_MOTION_DOT":1.561e-5,"MEAN_MOTION_DDOT":0},{"OBJECT_NAME":"STARLINK-30842","OBJECT_ID":"2023-177G","EPOCH":"2024-02-06T18:54:02.593728","MEAN_MOTION":15.25943322,"ECCENTRICITY":9.56e-5,"INCLINATION":42.9986,"RA_OF_ASC_NODE":160.4803,"ARG_OF_PERICENTER":293.0842,"MEAN_ANOMALY":66.9908,"EPHEMERIS_TYPE":0,"CLASSIFICATION_TYPE":"U","NORAD_CAT_ID":58357,"ELEMENT_SET_NO":999,"REV_AT_EPOCH":1378,"BSTAR":0.0010959,"MEAN_MOTION_DOT":0.00028549,"MEAN_MOTION_DDOT":0},{"OBJECT_NAME":"STARLINK-30858","OBJECT_ID":"2023-177H","EPOCH":"2024-02-06T22:00:00.999936","MEAN_MOTION":15.04450338,"ECCENTRICITY":0.0001913,"INCLINATION":42.9994,"RA_OF_ASC_NODE":171.4469,"ARG_OF_PERICENTER":274.315,"MEAN_ANOMALY":256.7069,"EPHEMERIS_TYPE":0,"CLASSIFICATION_TYPE":"U","NORAD_CAT_ID":58358,"ELEMENT_SET_NO":999,"REV_AT_EPOCH":584,"BSTAR":0.0031049,"MEAN_MOTION_DOT":0.00044209,"MEAN_MOTION_DDOT":0},{"OBJECT_NAME":"STARLINK-30878","OBJECT_ID":"2023-177J","EPOCH":"2024-02-06T08:54:34.189920","MEAN_MOTION":15.15956202,"ECCENTRICITY":7.83e-5,"INCLINATION":42.9967,"RA_OF_ASC_NODE":173.7814,"ARG_OF_PERICENTER":290.4516,"MEAN_ANOMALY":69.6247,"EPHEMERIS_TYPE":0,"CLASSIFICATION_TYPE":"U","NORAD_CAT_ID":58359,"ELEMENT_SET_NO":999,"REV_AT_EPOCH":1354,"BSTAR":0.00065957,"MEAN_MOTION_DOT":0.00012675,"MEAN_MOTION_DDOT":0},{"OBJECT_NAME":"STARLINK-30897","OBJECT_ID":"2023-177K","EPOCH":"2024-02-06T22:00:00.999936","MEAN_MOTION":15.02493512,"ECCENTRICITY":0.0001278,"INCLINATION":43.0007,"RA_OF_ASC_NODE":171.234,"ARG_OF_PERICENTER":287.3398,"MEAN_ANOMALY":332.7407,"EPHEMERIS_TYPE":0,"CLASSIFICATION_TYPE":"U","NORAD_CAT_ID":58360,"ELEMENT_SET_NO":999,"REV_AT_EPOCH":565,"BSTAR":0.0023311,"MEAN_MOTION_DOT":0.00031391,"MEAN_MOTION_DDOT":0},{"OBJECT_NAME":"STARLINK-30885","OBJECT_ID":"2023-177L","EPOCH":"2024-02-06T22:00:00.999936","MEAN_MOTION":15.04499374,"ECCENTRICITY":0.0001274,"INCLINATION":42.9992,"RA_OF_ASC_NODE":171.376,"ARG_OF_PERICENTER":258.2675,"MEAN_ANOMALY":302.4643,"EPHEMERIS_TYPE":0,"CLASSIFICATION_TYPE":"U","NORAD_CAT_ID":58361,"ELEMENT_SET_NO":999,"REV_AT_EPOCH":559,"BSTAR":-0.0020144,"MEAN_MOTION_DOT":-0.00028764,"MEAN_MOTION_DDOT":0},{"OBJECT_NAME":"STARLINK-30890","OBJECT_ID":"2023-177M","EPOCH":"2024-02-06T22:00:00.999936","MEAN_MOTION":15.07206125,"ECCENTRICITY":0.0001176,"INCLINATION":42.9992,"RA_OF_ASC_NODE":171.2723,"ARG_OF_PERICENTER":257.7256,"MEAN_ANOMALY":346.4975,"EPHEMERIS_TYPE":0,"CLASSIFICATION_TYPE":"U","NORAD_CAT_ID":58362,"ELEMENT_SET_NO":999,"REV_AT_EPOCH":584,"BSTAR":-0.15872,"MEAN_MOTION_DOT":-0.0220164,"MEAN_MOTION_DDOT":0},{"OBJECT_NAME":"STARLINK-30909","OBJECT_ID":"2023-177N","EPOCH":"2024-02-06T22:00:00.999936","MEAN_MOTION":15.10050122,"ECCENTRICITY":0.0001306,"INCLINATION":42.9993,"RA_OF_ASC_NODE":171.2046,"ARG_OF_PERICENTER":263.4396,"MEAN_ANOMALY":9.2287,"EPHEMERIS_TYPE":0,"CLASSIFICATION_TYPE":"U","NORAD_CAT_ID":58363,"ELEMENT_SET_NO":999,"REV_AT_EPOCH":580,"BSTAR":-0.14664,"MEAN_MOTION_DOT":-0.02200334,"MEAN_MOTION_DDOT":0},{"OBJECT_NAME":"STARLINK-30904","OBJECT_ID":"2023-177P","EPOCH":"2024-02-07T06:00:00.999648","MEAN_MOTION":15.09608515,"ECCENTRICITY":0.0001567,"INCLINATION":42.9996,"RA_OF_ASC_NODE":169.0555,"ARG_OF_PERICENTER":275.0817,"MEAN_ANOMALY":141.2626,"EPHEMERIS_TYPE":0,"CLASSIFICATION_TYPE":"U","NORAD_CAT_ID":58364,"ELEMENT_SET_NO":999,"REV_AT_EPOCH":1368,"BSTAR":-0.1474,"MEAN_MOTION_DOT":-0.02186298,"MEAN_MOTION_DDOT":0},{"OBJECT_NAME":"STARLINK-30918","OBJECT_ID":"2023-177Q","EPOCH":"2024-02-06T20:42:33.797952","MEAN_MOTION":15.08103338,"ECCENTRICITY":0.0002336,"INCLINATION":42.9989,"RA_OF_ASC_NODE":171.4492,"ARG_OF_PERICENTER":278.2463,"MEAN_ANOMALY":81.8116,"EPHEMERIS_TYPE":0,"CLASSIFICATION_TYPE":"U","NORAD_CAT_ID":58365,"ELEMENT_SET_NO":999,"REV_AT_EPOCH":1362,"BSTAR":-0.068754,"MEAN_MOTION_DOT":-0.01003303,"MEAN_MOTION_DDOT":0},{"OBJECT_NAME":"STARLINK-30892","OBJECT_ID":"2023-177R","EPOCH":"2024-02-06T22:00:00.999936","MEAN_MOTION":15.04421142,"ECCENTRICITY":0.0001242,"INCLINATION":42.9993,"RA_OF_ASC_NODE":171.2437,"ARG_OF_PERICENTER":260.7544,"MEAN_ANOMALY":354.5568,"EPHEMERIS_TYPE":0,"CLASSIFICATION_TYPE":"U","NORAD_CAT_ID":58366,"ELEMENT_SET_NO":999,"REV_AT_EPOCH":585,"BSTAR":0.0040848,"MEAN_MOTION_DOT":0.00058298,"MEAN_MOTION_DDOT":0},{"OBJECT_NAME":"STARLINK-30891","OBJECT_ID":"2023-177S","EPOCH":"2024-02-06T12:33:49.627584","MEAN_MOTION":15.1596908,"ECCENTRICITY":0.0001244,"INCLINATION":42.9977,"RA_OF_ASC_NODE":173.1999,"ARG_OF_PERICENTER":243.5184,"MEAN_ANOMALY":116.5535,"EPHEMERIS_TYPE":0,"CLASSIFICATION_TYPE":"U","NORAD_CAT_ID":58367,"ELEMENT_SET_NO":999,"REV_AT_EPOCH":1350,"BSTAR":0.00025691,"MEAN_MOTION_DOT":4.792e-5,"MEAN_MOTION_DDOT":0},{"OBJECT_NAME":"STARLINK-30889","OBJECT_ID":"2023-177T","EPOCH":"2024-02-07T06:00:00.999648","MEAN_MOTION":15.08748631,"ECCENTRICITY":0.0001576,"INCLINATION":42.9995,"RA_OF_ASC_NODE":169.2492,"ARG_OF_PERICENTER":263.414,"MEAN_ANOMALY":73.8375,"EPHEMERIS_TYPE":0,"CLASSIFICATION_TYPE":"U","NORAD_CAT_ID":58368,"ELEMENT_SET_NO":999,"REV_AT_EPOCH":1368,"BSTAR":-0.15068,"MEAN_MOTION_DOT":-0.02182751,"MEAN_MOTION_DDOT":0}]
